#dP2023  8 30  0  0  0.00000000      96 __u+U IGS14 FIT  IAC
## 2277 259200.00000000   900.00000000 60186 0.0000000000000
+  119   C06C07C08C09C10C11C12C13C14C16C19C20C21C22C23C24C25
+        C26C27C28C29C30C32C33C34C35C36C37C38C39C40C41C42C43
+        C44C45C46E02E03E04E05E07E08E09E10E11E12E13E14E15E18
+        E19E21E24E25E26E27E30E31E33E34E36G01G02G03G04G05G06
+        G07G08G09G10G11G12G13G14G15G16G17G18G19G20G21G22G23
+        G24G25G26G27G28G29G30G31G32J02J03J04R01R02R03R04R05
+        R07R08R09R11R12R13R14R15R16R17R18R19R20R21R22R24R25
++         7  7  7  7  8  8  7  7  7  7  6  6  6  6  6  6  6
++         6  6  6  6  6  6  6  6  6  6  7  7  6  6  6  6  6
++         6  6  6  4  5  4  5  4  4  5  4  4  4  4  5  5  4
++         4  4  4  4  4  4  4  4  4  5  5  4  4  3  3  4  3
++         4  4  3  4  3  3  4  4  4  4  3  4  3  4  4  4  4
++         4  3  4  4  4  4  3  4  3  9  9 10  8  7  7  7  7
++         7  7  7  7  7  8  7  7  7  7  7  7  8  7  7  7  8
%c M  cc GPS ccc cccc cccc cccc cccc ccccc ccccc ccccc ccccc
%c cc cc ccc ccc cccc cccc cccc cccc ccccc ccccc ccccc ccccc
%f  1.2500000  1.025000000  0.00000000000  0.000000000000000
%f  0.0000000  0.000000000  0.00000000000  0.000000000000000
%i    0    0    0    0      0      0      0      0         0
%i    0    0    0    0      0      0      0      0         0
/* INFORMATION & ANALYSIS CENTER (IAC)            FINAL DATA
/* S/V CLOCKS ARE ALIGNED TO GNSS TIME                      
/* G:C1WC2W R:C1PC2P E:C1XC5X C:C2IC6I J:C1CC2S             
/* PCV:IGS20_2274 OL/AL:FES2004  NONE     YN ORB:CoN CLK:CoN
*  2023 08 30 22 15  0.00000000
PC06  -2511.008211  27551.421135 -31727.204414    941.125556
PC07 -17479.263416  31105.366322  22393.920968    -11.821351
PC08  -9037.543065  40752.398095   6680.688081    367.367175
PC09   5284.747385  31053.983797 -27322.501663    227.010404
PC10  -9515.800944  31178.684236  26806.798038   -162.433359
PC11  22101.641219  15810.280090   6486.558006    806.784899
PC12   5860.583498  17981.641318  20564.709002    916.455183
PC13  -4564.192884  42069.300808    521.471302    343.517919
PC14  14227.384604   8627.024042 -22405.270713    319.741022
PC16  -5746.549825  25069.317608 -33098.756688    -58.385158
PC19 -20889.122683   -515.492216  18501.450031   -970.889189
PC20  -6794.036608 -14311.802896  22976.913583    321.446891
PC21 -12648.959958  20604.402156 -13911.138764   -959.486970
PC22 -23733.597550  14327.764340   3065.930780   -328.471506
PC23  14751.012888  -9717.259856  21613.673355   -887.320830
PC24   7364.331878  26081.112187   6704.525204    340.578223
PC25  16028.010929  10281.991766  20399.311026    200.741258
PC26  -3964.579747  25872.840892  -9737.264583   -170.745490
PC27   3549.470263 -15822.706120 -22730.911090    192.125180
PC28  19820.497255  -5274.325798 -18923.339921    143.925211
PC29 -26245.133900  -9122.718549   2552.663569    167.990497
PC30 -15523.038528 -17824.908576 -14852.344776     -4.208244
PC32  12596.700183 -20725.847738  13819.426558   -530.012063
PC33  20866.635922    469.179606 -18535.563825   -951.639311
PC34  16733.569473  17580.426201  13748.912403    248.773891
PC35 -19793.811907   5915.994225  18763.967343    556.775578
PC36 -15612.387283 -11498.695585 -20037.926549   -249.993630
PC37   5143.285716 -25326.467980  10515.973033   -817.193137
PC38 -13064.282823  37546.897565  14324.253655    101.617699
PC39 -10738.372168  21720.505253 -34449.250484     -4.560922
PC40 -24895.247981  25324.322728  22541.696167    -34.757498
PC41  23845.923061 -14005.277544  -3727.555552   -882.771730
PC42   5418.199941  15199.814693 -22729.534396   -561.553183
PC43  26095.962195   9716.749191  -1719.454269     37.602043
PC44  -3236.376667  15980.265977  22632.590501    216.413244
PC45 -14468.229997  10309.722250 -21519.955794    -20.067233
PC46  -8067.623764 -25483.629982  -7941.830185    -80.549809
PE02 -20139.616197  10863.010031 -18780.300487     59.039205
PE03 -28742.131862   5030.624658  -4945.069170    -51.139588
PE04  15584.460713 -15015.802100  20199.232616   -201.199826
PE05 -25226.373115  -7951.331692  13285.821845     13.870632
PE07   6535.516130  16341.959418 -23799.192085    -71.255274
PE08 -16005.116680  14775.790579 -20040.856727   -138.606023
PE09  -6346.567107 -16225.188553  23926.477408   -139.137563
PE10  -2908.011609 -24147.839116 -16870.845352   -560.082420
PE11 -11161.405041 -26297.618306  -7768.217392   2834.619499
PE12   5166.528207 -18621.553761 -22431.152943   -678.583211
PE13  10716.386003  26268.458413   8449.828978    -19.540729
PE14 -13969.031350  12050.649349  14721.876392    326.400035
PE15  -5410.750170  18281.256129  22644.764261    -49.332157
PE18  20480.434868 -15633.675967 -19536.006946    474.565061
PE19  29315.153875  -3227.941745   2525.108389  -1736.064707
PE21  14149.139202   9142.049938  24344.392690   -549.767470
PE24    858.525981 -25148.805776 -15580.212014   -294.825796
PE25 -13934.960567  -9508.703044 -24310.463395     -1.072116
PE26  20529.548288  18228.999396 -11079.861606    208.210280
PE27   -327.827344  24880.924107  16044.354320   -137.777512
PE30 -14785.951191  25568.507444  -2036.572238   -460.659896
PE31  14460.107943 -25776.712146   1634.804821     -3.923523
PE33  18411.626609    964.621731 -23163.596148     -1.013886
PE34 -18132.174378   -239.769444  23381.550433    -64.411091
PE36 -20339.661544 -18775.638325  10479.649403   -108.903266
PG01 -18300.856184  -9163.828635  16770.580505    166.822508
PG02 -20071.562254 -13465.923232  11701.980851   -559.581623
PG03 -16837.627182   2806.960355  20170.118584   -160.963906
PG04 -26605.828289   -618.718515    866.982052    141.512549
PG05   9886.770582  13064.478586 -21068.716210   -140.841938
PG06   2728.003802  22310.924903  14139.627071    558.464337
PG07 -12838.885600   8160.447001 -21298.006581     80.894323
PG08 -23276.013240  -6626.930664 -11466.436666   -139.786506
PG09 -24413.223610   6992.457254  -7941.551581    -72.816788
PG10  10467.682186 -24050.746780   3027.819818    -51.414748
PG11  12210.169228  23588.330265   1185.731918   -345.405030
PG12  15682.857901   2424.931501  21009.218436   -419.110809
PG13  16256.754567  13182.434410 -16669.343389    566.615156
PG14 -13314.889956  22873.661222   -300.862262    170.171952
PG15  24124.030644   4040.896490 -11126.942471     72.811119
PG16  -5001.717335 -17327.284651 -19650.834361   -461.107559
PG17 -11755.490658  13400.699041  20158.117192    723.335095
PG18  10886.840078 -10591.598917 -21770.555761   -400.845795
PG19  -2583.446590  14690.496578  21757.474156    364.844890
PG20   3574.233791  22091.314179 -14410.497302    414.432540
PG21 -20068.934097 -15754.927108   9398.736392    149.830006
PG22  -9230.407541  23956.418896   7798.230611    131.361228
PG23  16351.182644 -18554.436326  -9444.927160     61.828322
PG24  20367.323804  11872.167763  12259.365356   -305.434809
PG25  18043.379526 -12337.011418  14586.703227    465.120147
PG26   1461.526544 -23879.797886 -11275.079416    230.749231
PG27 -13104.751543 -12980.310782 -19511.136813    -31.234481
PG28  -1665.443184 -21616.663303  15323.460314     -3.628809
PG29  24956.894655  -4467.985944  -8140.921833   -608.660241
PG30  -5535.450078  17588.729956 -18903.611320   -492.051943
PG31  -9037.789197 -23888.402964   6248.195319   -222.659654
PG32   6487.590132 -15020.908218  21061.638624   -549.823989
PJ02 -27153.694790  31207.906602  -3503.742790     -3.281768
PJ03 -26367.859140  22144.483505  29405.841332     -1.858376
PJ04 -32833.212270  26048.388807   -495.803170     70.507261
PR01  14543.257374 -15049.245899  14586.475363     64.581672
PR02  -2796.469648 -10587.414141  23073.521418    -22.483267
PR03 -18435.076656   -593.480009  17690.860689     84.303305
PR04 -23577.184797   9365.680986   2766.032844    200.826544
PR05 -16105.787500  14291.812131 -13691.263490    118.200783
PR07  18895.849530     76.468209 -17071.976791     63.575629
PR08  23462.622415  -9643.647876  -2444.005257    -72.360231
PR09   3241.473599  23515.860333   9249.564906    139.578398
PR11  10921.202662  -7606.083850  21778.689309   -147.946240
PR12   5989.939256 -23271.387649   8570.476885     30.748815
PR13  -1840.824411 -24374.885533  -7298.929614    -38.701209
PR14  -9598.370795 -10307.008121 -21254.600610     25.171772
PR15 -10968.628694   8916.212582 -21206.271883     86.595712
PR16  -5870.216501  23179.190156  -8818.770115     18.221916
PR17 -21515.061726 -13121.488131   3785.280644     13.325522
PR18 -17714.533764  -2726.089940  18182.311137     99.450551
PR19  -6417.378305   8130.510119  23308.507257   -245.425299
PR20  12173.679989  17348.535645  14178.589794    -99.215261
PR21  21545.836196  12812.049998  -4824.020428    -34.347244
PR22  17269.669124   2273.035100 -18607.174929    122.184769
PR24 -13119.672787 -17170.363077 -13518.867182    -22.485197
PR25  20966.093000  14076.892266  -3693.788787     40.087340
EOF
